HAWK-11C                
1 62381U 24247E   26068.51221537  .00009223  00000+0  33290-3 0  9992
2 62381  45.0045 114.8762 0005900 329.7040  30.3502 15.28848020 67743
STARLINK-34241          
1 64229U 25117AC  26068.24194429  .00014204  00000+0  49081-3 0  9991
2 64229  53.1615  41.9927 0001151  94.1380 265.9753 15.30198378 44483
